54114,ONEWEB-0492,2022,109.11,148.0,+,87.91,Active,1,LEO,India,UK,Commercial,Communications,PSLV,1 54114U 22138B   24265.86220099 -.00000057  00000+0 -17536-3 0  9994,2 54114  87.9103  70.9364 0001905  96.0520 264.0830 13.19732562 94174,13.19732562,0.0001905,LEO
54115,ONEWEB-0495,2022,109.11,148.0,+,87.91,Active,1,LEO,India,UK,Commercial,Communications,PSLV,1 54115U 22138C   24265.46100500  .00000056  00000+0  10845-3 0  9998,2 54115  87.9103  71.0283 0001827 118.6220 241.5096 13.19724225 93235,13.19724225,0.0001827,LEO
54116,ONEWEB-0497,2022,109.11,148.0,+,87.91,Active,1,LEO,India,UK,Commercial,Communications,PSLV,1 54116U 22138D   24265.47362184  .00000055  00000+0  10465-3 0  9995,2 54116  87.9100  71.0096 0001790  95.3414 264.7923 13.19725740 93228,13.1972574,0.000179,LEO
54117,ONEWEB-0499,2022,109.11,148.0,+,87.91,Active,1,LEO,India,UK,Commercial,Communications,PSLV,1 54117U 22138E   24265.75951051  .00000006  00000+0 -17888-4 0  9998,2 54117  87.9106  70.9581 0001242  97.2298 262.8975 13.19727303 94140,13.19727303,0.0001242,LEO
54118,ONEWEB-0500,2022,109.11,148.0,+,87.91,Active,1,LEO,India,UK,Commercial,Communications,PSLV,1 54118U 22138F   24265.45942553  .00000128  00000+0  28745-3 0  9990,2 54118  87.9103  71.0112 0001824  93.0404 267.0938 13.19725285 93242,13.19725285,0.0001824,LEO
54119,ONEWEB-0501,2022,109.11,148.0,+,87.91,Active,1,LEO,India,UK,Commercial,Communications,PSLV,1 54119U 22138G   24265.86850788 -.00005050  00000+0 -12649-1 0  9999,2 54119  87.9098  70.9257 0001669 116.9291 243.2012 13.19750720 94141,13.1975072,0.0001669,LEO
54120,ONEWEB-0502,2022,109.11,148.0,+,87.91,Active,1,LEO,India,UK,Commercial,Communications,PSLV,1 54120U 22138H   24265.47521185  .00000111  00000+0  24371-3 0  9992,2 54120  87.9100  70.9929 0001561 103.2142 256.9164 13.19726340 93248,13.1972634,0.0001561,LEO
54121,ONEWEB-0503,2022,109.11,148.0,+,87.91,Active,1,LEO,India,UK,Commercial,Communications,PSLV,1 54121U 22138J   24265.46413395  .00000072  00000+0  14771-3 0  9994,2 54121  87.9098  71.0013 0001382  85.2362 274.8929 13.19729658 93237,13.19729658,0.0001382,LEO
